{
  "type": "FeatureCollection",
  "features": [
    {
      "type": "Feature",
      "properties": {
        "norad_id": 34079,
        "name": "IRIDIUM 33 DEB",
        "group": "iridium-33-debris",
        "lat": -13.279162556418905,
        "lon": -171.02868061051439,
        "alt_km": 626.5732178078115,
        "timestamp": "2025-12-13T22:39:30.095440+00:00",
        "meta_object_name": "IRIDIUM 33 DEB",
        "meta_object_id": "1997-051CN",
        "meta_epoch": "2025-12-13T02:38:00.660768",
        "meta_mean_motion": 14.83544701,
        "meta_eccentricity": 0.00055627,
        "meta_inclination": 86.3783,
        "meta_ra_of_asc_node": 8.4941,
        "meta_arg_of_pericenter": 6.7024,
        "meta_mean_anomaly": 53.2279,
        "meta_ephemeris_type": 0,
        "meta_classification_type": "U",
        "meta_norad_cat_id": 34079,
        "meta_element_set_no": 999,
        "meta_rev_at_epoch": 88983,
        "meta_bstar": 0.002313304,
        "meta_mean_motion_dot": 0.00019103,
        "meta_mean_motion_ddot": 0,
        "tle_line1": "1 34079U 97051CN  25347.10972987  .00019103  00000+0  23133-2 0  9996",
        "tle_line2": "2 34079  86.3783   8.4941 0005562   6.7024  53.2279 14.83544701889834"
      },
      "geometry": {
        "type": "Point",
        "coordinates": [
          -171.02868061051439,
          -13.279162556418905
        ]
      }
    },
    {
      "type": "Feature",
      "properties": {
        "norad_id": 34088,
        "name": "IRIDIUM 33 DEB",
        "group": "iridium-33-debris",
        "lat": -41.353258423227395,
        "lon": 26.98127203692846,
        "alt_km": 603.3713889318169,
        "timestamp": "2025-12-13T22:39:30.095451+00:00",
        "meta_object_name": "IRIDIUM 33 DEB",
        "meta_object_id": "1997-051CX",
        "meta_epoch": "2025-12-13T02:11:05.412768",
        "meta_mean_motion": 14.9141682,
        "meta_eccentricity": 0.00057602,
        "meta_inclination": 86.3854,
        "meta_ra_of_asc_node": 30.5626,
        "meta_arg_of_pericenter": 175.2216,
        "meta_mean_anomaly": 246.158,
        "meta_ephemeris_type": 0,
        "meta_classification_type": "U",
        "meta_norad_cat_id": 34088,
        "meta_element_set_no": 999,
        "meta_rev_at_epoch": 88747,
        "meta_bstar": 0.0035959304,
        "meta_mean_motion_dot": 0.00036087,
        "meta_mean_motion_ddot": 0,
        "tle_line1": "1 34088U 97051CX  25347.09103487  .00036087  00000+0  35959-2 0  9994",
        "tle_line2": "2 34088  86.3854  30.5626 0005760 175.2216 246.1580 14.91416820887479"
      },
      "geometry": {
        "type": "Point",
        "coordinates": [
          26.98127203692846,
          -41.353258423227395
        ]
      }
    },
    {
      "type": "Feature",
      "properties": {
        "norad_id": 34091,
        "name": "IRIDIUM 33 DEB",
        "group": "iridium-33-debris",
        "lat": 76.54422861858079,
        "lon": -129.23139351197736,
        "alt_km": 639.0793537511918,
        "timestamp": "2025-12-13T22:39:30.095463+00:00",
        "meta_object_name": "IRIDIUM 33 DEB",
        "meta_object_id": "1997-051DA",
        "meta_epoch": "2025-12-13T05:59:19.095648",
        "meta_mean_motion": 14.81906708,
        "meta_eccentricity": 0.00333516,
        "meta_inclination": 86.341,
        "meta_ra_of_asc_node": 66.5996,
        "meta_arg_of_pericenter": 291.5333,
        "meta_mean_anomaly": 68.2335,
        "meta_ephemeris_type": 0,
        "meta_classification_type": "U",
        "meta_norad_cat_id": 34091,
        "meta_element_set_no": 999,
        "meta_rev_at_epoch": 87874,
        "meta_bstar": 0.0088938354,
        "meta_mean_motion_dot": 0.00071729,
        "meta_mean_motion_ddot": 0,
        "tle_line1": "1 34091U 97051DA  25347.24952657  .00071729  00000+0  88938-2 0  9993",
        "tle_line2": "2 34091  86.3410  66.5996 0033351 291.5333  68.2335 14.81906708878748"
      },
      "geometry": {
        "type": "Point",
        "coordinates": [
          -129.23139351197736,
          76.54422861858079
        ]
      }
    },
    {
      "type": "Feature",
      "properties": {
        "norad_id": 34097,
        "name": "IRIDIUM 33 DEB",
        "group": "iridium-33-debris",
        "lat": 32.16366503634572,
        "lon": 178.48211029053746,
        "alt_km": 824.65740008788,
        "timestamp": "2025-12-13T22:39:30.095479+00:00",
        "meta_object_name": "IRIDIUM 33 DEB",
        "meta_object_id": "1997-051DG",
        "meta_epoch": "2025-12-13T01:53:21.702624",
        "meta_mean_motion": 14.34781379,
        "meta_eccentricity": 0.00825399,
        "meta_inclination": 86.2011,
        "meta_ra_of_asc_node": 1.2585,
        "meta_arg_of_pericenter": 1.0814,
        "meta_mean_anomaly": 359.0544,
        "meta_ephemeris_type": 0,
        "meta_classification_type": "U",
        "meta_norad_cat_id": 34097,
        "meta_element_set_no": 999,
        "meta_rev_at_epoch": 87124,
        "meta_bstar": 0.0020934094,
        "meta_mean_motion_dot": 6.186e-05,
        "meta_mean_motion_ddot": 0,
        "tle_line1": "1 34097U 97051DG  25347.07872341  .00006186  00000+0  20934-2 0  9998",
        "tle_line2": "2 34097  86.2011   1.2585 0082539   1.0814 359.0544 14.34781379871244"
      },
      "geometry": {
        "type": "Point",
        "coordinates": [
          178.48211029053746,
          32.16366503634572
        ]
      }
    },
    {
      "type": "Feature",
      "properties": {
        "norad_id": 34145,
        "name": "IRIDIUM 33 DEB",
        "group": "iridium-33-debris",
        "lat": 86.07113902738205,
        "lon": 46.70909343686797,
        "alt_km": 703.6792404708913,
        "timestamp": "2025-12-13T22:39:30.095490+00:00",
        "meta_object_name": "IRIDIUM 33 DEB",
        "meta_object_id": "1997-051DY",
        "meta_epoch": "2025-12-13T03:56:04.562016",
        "meta_mean_motion": 14.42295665,
        "meta_eccentricity": 0.00557423,
        "meta_inclination": 86.2121,
        "meta_ra_of_asc_node": 332.338,
        "meta_arg_of_pericenter": 92.4586,
        "meta_mean_anomaly": 268.2998,
        "meta_ephemeris_type": 0,
        "meta_classification_type": "U",
        "meta_norad_cat_id": 34145,
        "meta_element_set_no": 999,
        "meta_rev_at_epoch": 87644,
        "meta_bstar": 0.0018432555,
        "meta_mean_motion_dot": 6.217e-05,
        "meta_mean_motion_ddot": 0,
        "tle_line1": "1 34145U 97051DY  25347.16394169  .00006217  00000+0  18433-2 0  9995",
        "tle_line2": "2 34145  86.2121 332.3380 0055742  92.4586 268.2998 14.42295665876445"
      },
      "geometry": {
        "type": "Point",
        "coordinates": [
          46.70909343686797,
          86.07113902738205
        ]
      }
    },
    {
      "type": "Feature",
      "properties": {
        "norad_id": 34146,
        "name": "IRIDIUM 33 DEB",
        "group": "iridium-33-debris",
        "lat": 64.09340401427886,
        "lon": 161.5794590336175,
        "alt_km": 726.2304677735583,
        "timestamp": "2025-12-13T22:39:30.095501+00:00",
        "meta_object_name": "IRIDIUM 33 DEB",
        "meta_object_id": "1997-051DZ",
        "meta_epoch": "2025-12-13T07:30:17.081280",
        "meta_mean_motion": 14.49057654,
        "meta_eccentricity": 0.00255419,
        "meta_inclination": 86.284,
        "meta_ra_of_asc_node": 349.5476,
        "meta_arg_of_pericenter": 219.5819,
        "meta_mean_anomaly": 204.644,
        "meta_ephemeris_type": 0,
        "meta_classification_type": "U",
        "meta_norad_cat_id": 34146,
        "meta_element_set_no": 999,
        "meta_rev_at_epoch": 88115,
        "meta_bstar": 0.0015611162,
        "meta_mean_motion_dot": 5.97e-05,
        "meta_mean_motion_ddot": 0,
        "tle_line1": "1 34146U 97051DZ  25347.31269770  .00005970  00000+0  15611-2 0  9992",
        "tle_line2": "2 34146  86.2840 349.5476 0025541 219.5819 204.6440 14.49057654881156"
      },
      "geometry": {
        "type": "Point",
        "coordinates": [
          161.5794590336175,
          64.09340401427886
        ]
      }
    },
    {
      "type": "Feature",
      "properties": {
        "norad_id": 34159,
        "name": "IRIDIUM 33 DEB",
        "group": "iridium-33-debris",
        "lat": 35.00088717650936,
        "lon": -134.83319261781702,
        "alt_km": 775.1758805584686,
        "timestamp": "2025-12-13T22:39:30.095512+00:00",
        "meta_object_name": "IRIDIUM 33 DEB",
        "meta_object_id": "1997-051EN",
        "meta_epoch": "2025-12-13T05:17:25.528704",
        "meta_mean_motion": 14.38497662,
        "meta_eccentricity": 0.00259818,
        "meta_inclination": 86.3512,
        "meta_ra_of_asc_node": 48.0362,
        "meta_arg_of_pericenter": 286.1161,
        "meta_mean_anomaly": 73.7177,
        "meta_ephemeris_type": 0,
        "meta_classification_type": "U",
        "meta_norad_cat_id": 34159,
        "meta_element_set_no": 999,
        "meta_rev_at_epoch": 87966,
        "meta_bstar": 0.00071168638,
        "meta_mean_motion_dot": 2.2e-05,
        "meta_mean_motion_ddot": 0,
        "tle_line1": "1 34159U 97051EN  25347.22043436  .00002200  00000+0  71169-3 0  9999",
        "tle_line2": "2 34159  86.3512  48.0362 0025981 286.1161  73.7177 14.38497662879660"
      },
      "geometry": {
        "type": "Point",
        "coordinates": [
          -134.83319261781702,
          35.00088717650936
        ]
      }
    }
  ]
}